OBJECT_NAME,OBJECT_ID,EPOCH,MEAN_MOTION,ECCENTRICITY,INCLINATION,RA_OF_ASC_NODE,ARG_OF_PERICENTER,MEAN_ANOMALY,EPHEMERIS_TYPE,CLASSIFICATION_TYPE,NORAD_CAT_ID,ELEMENT_SET_NO,REV_AT_EPOCH,BSTAR,MEAN_MOTION_DOT,MEAN_MOTION_DDOT
COSMOS 2251 DEB,1993-036HU,2024-10-09T10:43:10.443360,14.86091159,0.0025525,73.9963,248.1134,343.0495,155.2578,0,U,34033,999,82229,2.599E-02,2.36892E-03,0
COSMOS 2251 DEB,1993-036HW,2024-10-09T10:42:56.903616,14.44239478,0.0048749,74.0679,72.2685,187.9546,243.5215,0,U,34035,999,81749,9.1516E-03,3.2021E-04,0
COSMOS 2251 DEB,1993-036HX,2024-10-08T09:58:16.461984,14.65009253,0.00254,74.0331,277.3008,65.3624,295.0186,0,U,34036,999,82204,6.9041E-02,3.90659E-03,0
COSMOS 2251 DEB,1993-036HY,2024-10-09T13:25:19.200864,14.32456000,0.0056115,74.0504,114.8013,270.6551,88.8170,0,U,34037,999,81566,1.811E-03,4.967E-05,0
COSMOS 2251 DEB,1993-036JB,2024-10-09T10:20:44.917152,13.66049784,0.0347765,73.9595,54.1612,93.3008,270.7948,0,U,34040,999,77731,7.9391E-03,9.891E-05,0
COSMOS 2251 DEB,1993-036JG,2024-10-09T12:48:44.206272,14.33675102,0.0026947,74.0414,15.9617,208.5938,226.0988,0,U,34045,999,81881,4.5902E-04,1.252E-05,0
COSMOS 2251 DEB,1993-036JH,2024-10-08T11:31:05.471616,14.40350922,0.0086338,74.0387,90.5127,280.6457,99.3777,0,U,34046,999,81616,2.1037E-02,7.0429E-04,0
COSMOS 2251 DEB,1993-036JM,2024-10-09T00:53:53.696256,13.94641076,0.0220032,74.0919,26.3652,194.7205,339.9451,0,U,34050,999,79437,4.9649E-03,8.105E-05,0
COSMOS 2251 DEB,1993-036JQ,2024-10-09T13:23:45.465504,13.48295363,0.0424424,73.8452,213.4051,73.5513,291.1786,0,U,34053,999,76897,2.911E-03,3.12E-05,0
COSMOS 2251 DEB,1993-036JR,2024-10-09T12:37:25.813344,14.90253991,0.001388,74.0271,20.9493,247.7325,123.8626,0,U,34054,999,83054,7.9169E-03,7.7818E-04,0
COSMOS 2251 DEB,1993-036JT,2024-10-09T00:45:51.114240,14.16151220,0.0132334,74.0621,122.3699,274.5534,241.9766,0,U,34056,999,80317,5.3048E-03,1.1417E-04,0
COSMOS 2251 DEB,1993-036JU,2024-10-09T12:55:22.995840,14.83502021,0.0018283,74.0228,67.7530,287.3334,147.9337,0,U,34057,999,82871,1.2486E-02,1.04572E-03,0
COSMOS 2251 DEB,1993-036JV,2024-10-09T03:15:47.661984,13.55227962,0.0379097,73.9353,154.0752,230.6939,260.4594,0,U,34058,999,77320,1.8608E-03,2.016E-05,0
COSMOS 2251 DEB,1993-036JW,2024-10-09T10:28:35.087808,14.48219852,0.0017373,74.0393,273.6155,94.6492,57.0877,0,U,34059,999,82232,4.2971E-03,1.6074E-04,0
COSMOS 2251 DEB,1993-036JY,2024-10-09T12:49:30.008640,14.38782630,0.0019625,74.0416,335.9238,165.3483,316.6919,0,U,34061,999,82003,1.2604E-03,3.857E-05,0
COSMOS 2251 DEB,1993-036JZ,2024-10-09T07:34:04.828224,14.62000048,0.0098608,74.0347,252.2949,80.2473,47.7911,0,U,34062,999,82281,1.0238E-02,5.5432E-04,0
COSMOS 2251 DEB,1993-036KB,2024-10-09T05:51:36.137664,14.39884263,0.0021155,74.0354,346.3551,164.2697,252.7286,0,U,34064,999,81954,2.7369E-03,8.607E-05,0
COSMOS 2251 DEB,1993-036KC,2024-10-09T13:50:19.543776,14.37287983,0.0016154,74.0372,328.2296,179.5969,302.5870,0,U,34065,999,82037,6.4508E-04,1.9E-05,0
COSMOS 2251 DEB,1993-036KH,2024-10-09T14:16:32.490336,14.60963271,0.0024949,74.0066,229.5053,87.7768,85.4591,0,U,34070,999,82306,6.1928E-03,3.0597E-04,0
COSMOS 2251 DEB,1993-036KK,2024-10-09T00:28:50.419200,14.44736892,0.0057847,74.0627,131.6156,238.3312,272.9344,0,U,34114,999,81566,6.9995E-03,2.4858E-04,0
COSMOS 2251 DEB,1993-036KL,2024-10-09T04:43:17.355360,14.69122087,0.0037759,74.0137,2.6696,298.0857,61.6498,0,U,34115,999,83079,5.2301E-03,3.1195E-04,0
COSMOS 2251 DEB,1993-036KM,2024-10-09T10:11:25.725984,14.48307166,0.0010406,74.0422,270.0706,87.3136,64.5061,0,U,34116,999,82259,4.2791E-03,1.6017E-04,0
COSMOS 2251 DEB,1993-036KN,2024-10-08T19:53:48.996384,14.37063634,0.0059279,74.0421,56.5485,240.7917,118.7300,0,U,34117,999,81967,3.6293E-03,1.0984E-04,0
COSMOS 2251 DEB,1993-036KP,2024-10-09T13:44:26.224800,14.73362395,0.0091949,73.9624,24.3021,318.4496,52.4651,0,U,34118,999,82809,4.0082E-03,2.785E-04,0
COSMOS 2251 DEB,1993-036KR,2024-10-09T10:00:31.005792,13.97881920,0.0184033,73.9921,239.4626,161.4256,342.6045,0,U,34120,999,79979,1.3204E-03,2.137E-05,0
COSMOS 2251 DEB,1993-036KS,2024-10-09T13:54:44.770176,13.88994868,0.0245054,73.9925,110.9829,48.9370,7.0135,0,U,34121,999,79159,4.2689E-03,6.558E-05,0
COSMOS 2251 DEB,1993-036KT,2024-10-09T13:36:18.602208,14.56327767,0.0098268,74.0405,219.4127,226.6085,307.7367,0,U,34122,999,82415,2.9961E-03,1.4175E-04,0
COSMOS 2251 DEB,1993-036KU,2024-10-07T20:48:42.919488,15.70195803,0.0010039,73.9808,85.9667,306.0492,53.9801,0,U,34123,999,82820,3.0703E-02,4.411523E-02,0
COSMOS 2251 DEB,1993-036KX,2024-10-09T09:40:59.732832,15.06680249,0.0032739,73.9899,136.9769,82.1693,334.9598,0,U,34126,999,83769,8.8987E-03,1.36219E-03,0
COSMOS 2251 DEB,1993-036KY,2024-10-09T13:24:49.168224,14.24853443,0.0124984,74.1812,95.8168,55.1321,9.2690,0,U,34127,999,80642,4.5826E-03,1.1598E-04,0
COSMOS 2251 DEB,1993-036KZ,2024-10-09T11:21:54.000288,14.74354801,0.0049091,74.0084,74.4471,304.3424,110.8974,0,U,34128,999,82783,8.8455E-03,6.026E-04,0
COSMOS 2251 DEB,1993-036LA,2024-10-09T13:35:07.463904,14.65025520,0.0039313,74.0390,93.0078,286.0823,73.6018,0,U,34129,999,54987,3.5417E-03,1.923E-04,0
COSMOS 2251 DEB,1993-036LH,2024-10-09T03:27:09.027936,14.75011749,0.0093266,74.0213,166.8521,38.8822,78.5883,0,U,34136,999,83664,2.3813E-03,1.7205E-04,0
COSMOS 2251 DEB,1993-036LL,2024-10-09T13:33:12.289248,14.49903494,0.0046204,74.0357,346.7834,168.2855,318.7662,0,U,34139,999,81907,5.2921E-03,2.0771E-04,0
COSMOS 2251 DEB,1993-036LN,2024-10-08T22:19:02.140032,14.40929688,0.005725,74.0126,111.7491,300.2525,184.8944,0,U,34141,999,81482,5.8854E-03,1.929E-04,0
COSMOS 2251 DEB,1993-036LP,2024-10-09T13:33:36.338688,15.45044567,0.0023036,73.9540,150.6200,131.2435,229.0765,0,U,34142,999,83674,8.9347E-03,4.5105E-03,0
COSMOS 2251 DEB,1993-036LQ,2024-10-09T10:30:12.966912,14.60394448,0.0054303,74.0143,51.2182,310.3463,49.2966,0,U,34270,999,82817,1.7545E-03,8.65E-05,0
COSMOS 2251 DEB,1993-036LR,2024-10-09T10:58:33.155616,14.56229847,0.0020776,74.0272,304.7881,97.1959,331.8024,0,U,34271,999,81951,8.3848E-03,3.7368E-04,0
COSMOS 2251 DEB,1993-036LT,2024-10-09T10:39:03.254688,14.55180608,0.0014171,74.0388,184.8087,53.3459,62.4486,0,U,34273,999,82362,4.7105E-03,2.0428E-04,0
COSMOS 2251 DEB,1993-036LU,2024-10-09T03:35:27.337344,14.56974625,0.0023661,74.0081,171.6935,63.9833,87.2317,0,U,34274,999,82400,5.6571E-03,2.5588E-04,0
COSMOS 2251 DEB,1993-036LV,2024-10-09T00:03:32.093856,14.83645227,0.0006519,74.0242,157.9512,167.2760,192.8584,0,U,34275,999,82461,9.4681E-03,7.9079E-04,0
COSMOS 2251 DEB,1993-036LW,2024-10-09T11:58:07.877856,14.52674622,0.0022336,74.0259,178.8682,69.5264,103.6163,0,U,34276,999,82348,2.624E-03,1.0778E-04,0
COSMOS 2251 DEB,1993-036MT,2024-10-09T07:43:33.072384,14.36006066,0.0016919,74.0515,352.4390,175.5259,252.9387,0,U,34297,999,81899,7.2889E-04,2.096E-05,0
COSMOS 2251 DEB,1993-036MV,2024-10-09T01:44:16.339776,14.84799227,0.0127061,74.0107,145.0190,346.5911,13.1899,0,U,34299,999,82521,6.3505E-03,6.279E-04,0
COSMOS 2251 DEB,1993-036MW,2024-10-09T09:39:34.293600,14.86958379,0.0066232,74.0066,183.2075,36.2573,324.3067,0,U,34300,999,82415,1.8636E-02,1.77787E-03,0
COSMOS 2251 DEB,1993-036MX,2024-10-09T11:15:34.806240,14.62127445,0.0017289,74.0155,285.7175,81.0610,70.8073,0,U,34301,999,82075,1.1467E-02,5.8263E-04,0
COSMOS 2251 DEB,1993-036MY,2024-10-09T12:16:16.242240,14.35539931,0.0083362,74.1824,186.9495,164.9635,250.9404,0,U,34302,999,81552,2.8715E-03,8.585E-05,0
COSMOS 2251 DEB,1993-036MZ,2024-10-09T12:06:52.968672,14.46457991,0.0156162,74.0114,17.0627,259.8249,110.8060,0,U,34303,999,81737,4.4633E-03,1.8704E-04,0
COSMOS 2251 DEB,1993-036NA,2024-10-09T12:07:22.564128,14.32529610,0.0137146,74.0169,191.2682,70.8878,100.8061,0,U,34304,999,81137,4.4417E-03,1.3367E-04,0
COSMOS 2251 DEB,1993-036ND,2024-10-08T10:40:33.049344,13.53042432,0.0397106,74.0527,282.8848,207.0737,309.4337,0,U,34307,999,77039,7.359E-03,8.078E-05,0
COSMOS 2251 DEB,1993-036NK,2024-10-09T13:03:17.535744,14.76241740,0.0032358,73.9920,94.0549,345.3087,14.7143,0,U,34313,999,82650,6.582E-03,4.6253E-04,0
COSMOS 2251 DEB,1993-036NL,2024-10-09T14:19:44.559264,14.15834671,0.01066,74.0096,353.3363,198.7389,281.6010,0,U,34314,999,80580,2.2528E-03,4.658E-05,0
COSMOS 2251 DEB,1993-036NN,2024-10-09T13:31:48.910656,14.72147360,0.0010465,74.0694,104.3952,320.7629,39.2784,0,U,34316,999,82848,4.8719E-03,3.0825E-04,0
COSMOS 2251 DEB,1993-036NP,2024-10-09T07:15:30.276864,13.64048881,0.0338275,73.9275,22.2236,93.1275,300.6935,0,U,34317,999,77761,2.7895E-03,3.256E-05,0
COSMOS 2251 DEB,1993-036NT,2024-10-09T08:39:49.346784,14.46965956,0.0014192,74.0302,241.4132,119.1252,8.5874,0,U,34321,999,82268,3.1992E-03,1.1636E-04,0
COSMOS 2251 DEB,1993-036NV,2024-10-09T08:16:33.731904,14.59149107,0.0079734,73.9595,236.6036,20.0114,141.2651,0,U,34323,999,82140,1.2026E-02,5.9692E-04,0
COSMOS 2251 DEB,1993-036NX,2024-10-09T02:44:26.045376,14.00767921,0.0203551,73.8734,227.9568,325.6712,44.8509,0,U,34325,999,79490,8.4456E-03,1.5083E-04,0
COSMOS 2251 DEB,1993-036NZ,2024-10-08T10:57:47.512224,14.75195093,0.0041518,74.0008,305.1698,235.1825,245.5808,0,U,34327,999,83193,1.986E-02,1.38816E-03,0
COSMOS 2251 DEB,1993-036PC,2024-10-09T09:59:05.576928,15.04454024,0.0005892,74.0157,54.3669,8.4988,53.5279,0,U,34330,999,82889,1.7968E-02,2.60878E-03,0
COSMOS 2251 DEB,1993-036PD,2024-10-07T00:02:27.841632,15.46777246,0.0029775,74.0027,144.4205,170.0052,190.1758,0,U,34331,999,82563,2.8504E-02,1.611568E-02,0
COSMOS 2251 DEB,1993-036PN,2024-10-09T12:23:45.314880,13.77685298,0.0290032,74.0793,304.0481,152.6403,359.6312,0,U,34340,999,78352,2.7564E-03,3.739E-05,0
COSMOS 2251 DEB,1993-036PQ,2024-10-09T13:20:04.940736,14.99420525,0.0061519,74.1636,308.0995,21.3803,98.6012,0,U,34342,999,83582,4.4465E-03,5.7088E-04,0
COSMOS 2251 DEB,1993-036PR,2024-10-09T12:29:08.794752,14.58840752,0.0028233,74.0246,195.7122,220.8770,312.6713,0,U,34343,999,82445,4.3813E-03,2.0648E-04,0
